QIANFAN-49              
1 62250U 24232P   26008.28124550  .00000034  00000+0  33049-4 0  9990
2 62250  89.0004  38.5563 0016014 115.7124 244.5682 13.50983087 71420
QIANFAN-50              
1 62251U 24232Q   26008.30596343  .00000036  00000+0  37142-4 0  9997
2 62251  89.0009  38.5634 0017653 117.1174 243.1780 13.50979949 71455
QIANFAN-51              
1 62252U 24232R   26008.28948824  .00000040  00000+0  42991-4 0  9993
2 62252  89.0003  38.5573 0015097 119.9724 240.2928 13.50982561 71448
QIANFAN-52              
1 62253U 24232S   26008.31833417  .00000035  00000+0  34788-4 0  9998
2 62253  88.9999  38.4269 0017202 113.3742 246.9221 13.50980629 71532
QIANFAN-53              
1 62254U 24232T   26008.22363330  .00000049  00000+0  56721-4 0  9997
2 62254  89.0007  38.5430 0016065 114.4365 245.8464 13.50983192 71484
QIANFAN-54              
1 62255U 24232U   26008.33882701  .00000041  00000+0  45604-4 0  9998
2 62255  88.9998  38.2074 0003455 127.8338 232.3126 13.50983561103000
QIANFAN-55              
1 62785U 25016A   26008.29073558  .00000183  00000+0  26454-3 0  9992
2 62785  88.9776 100.4719 0015563 269.6205  90.3163 13.50985063 50778
QIANFAN-56              
1 62786U 25016B   26008.30720558  .00000170  00000+0  24551-3 0  9996
2 62786  88.9749 100.2995 0014187 272.0106  87.9420 13.50987628 50825
